*******************************************************************************
Ephemeris / WWW_USER Mon Mar 26 19:57:34 2018 Pasadena, USA      / Horizons    
*******************************************************************************
Target body name: Proteus (808)                   {source: nep081xl}
Center body name: Neptune Barycenter (8)          {source: DE431mx}
Center-site name: BODY CENTER
*******************************************************************************
Start time      : A.D. 2000-Jan-01 00:00:00.0000 TDB
Stop  time      : A.D. 2001-Jan-01 00:00:00.0000 TDB
Step-size       : 7200 minutes
*******************************************************************************
Center geodetic : 0.00000000,0.00000000,0.0000000 {E-lon(deg),Lat(deg),Alt(km)}
Center cylindric: 0.00000000,0.00000000,0.0000000 {E-lon(deg),Dxy(km),Dz(km)}
Center radii    : (undefined)                                                  
Output units    : AU-D                                                         
Output type     : GEOMETRIC cartesian states
Output format   : 2 (position and velocity)
Reference frame : ICRF/J2000.0                                                 
Coordinate systm: Ecliptic and Mean Equinox of Reference Epoch                 
*******************************************************************************
JDTDB
   X     Y     Z
   VX    VY    VZ
*******************************************************************************
$$SOE
2451544.500000000 = A.D. 2000-Jan-01 00:00:00.0000 TDB 
  -5.133588405750822E-04  4.571172039372975E-04  3.812575429372343E-04
  -2.929162610257902E-03 -3.287503946213046E-03 -2.013346639833844E-06
2451549.500000000 = A.D. 2000-Jan-06 00:00:00.0000 TDB 
   3.469435947678496E-04 -6.032171640690271E-04 -3.663387464401105E-04
   3.615476542104597E-03  2.439883458580530E-03 -5.956446463511935E-04
2451554.500000000 = A.D. 2000-Jan-11 00:00:00.0000 TDB 
  -1.541500205785629E-04  7.006311229970026E-04  3.227989115599269E-04
  -4.013336021174746E-03 -1.407087931596894E-03  1.141542292851919E-03
2451559.500000000 = A.D. 2000-Jan-16 00:00:00.0000 TDB 
  -5.301141184811319E-05 -7.430731449949211E-04 -2.523623944477712E-04
   4.092389196725395E-03  2.558989440066597E-04 -1.599289549268658E-03
2451564.500000000 = A.D. 2000-Jan-21 00:00:00.0000 TDB 
   2.529062972655554E-04  7.257330886691997E-04  1.633399277053851E-04
  -3.852689571108227E-03  9.114039576256056E-04  1.931639470438134E-03
2451569.500000000 = A.D. 2000-Jan-26 00:00:00.0000 TDB 
  -4.357050857124049E-04 -6.528456937654049E-04 -6.095276336992463E-05
   3.300242096534034E-03 -2.007034807506900E-03 -2.107240901216730E-03
2451574.500000000 = A.D. 2000-Jan-31 00:00:00.0000 TDB 
   5.823694515031515E-04  5.258943060328982E-04 -4.701401269149233E-05
  -2.494464664500626E-03  2.946717592328660E-03  2.120722284346933E-03
2451579.500000000 = A.D. 2000-Feb-05 00:00:00.0000 TDB 
  -6.830758511719458E-04 -3.594280640917825E-04  1.499436961900523E-04
   1.486588502104009E-03 -3.648002811731056E-03 -1.962893134852127E-03
2451584.500000000 = A.D. 2000-Feb-10 00:00:00.0000 TDB 
   7.302867543004831E-04  1.631565648694282E-04 -2.418808876581199E-04
  -3.605916566528895E-04  4.066931062057946E-03  1.651099125623014E-03
2451589.500000000 = A.D. 2000-Feb-15 00:00:00.0000 TDB 
  -7.197902316256825E-04  4.506454351201622E-05  3.147757547980682E-04
  -7.884268312052668E-04 -4.157776972335485E-03 -1.209160339404019E-03
2451594.500000000 = A.D. 2000-Feb-20 00:00:00.0000 TDB 
   6.507227117260097E-04 -2.511663442247190E-04 -3.619836899809287E-04
   1.883443811254847E-03  3.923996432974422E-03  6.698481169720813E-04
2451599.500000000 = A.D. 2000-Feb-25 00:00:00.0000 TDB 
  -5.330742742507111E-04  4.348428584779875E-04  3.811494698860482E-04
  -2.821442655596305E-03 -3.378918498657351E-03 -7.984950680862178E-05
2451604.500000000 = A.D. 2000-Mar-01 00:00:00.0000 TDB 
   3.701213777805496E-04 -5.875065105262965E-04 -3.703559018706643E-04
   3.540788102007949E-03  2.562537983788937E-03 -5.191218198353799E-04
2451609.500000000 = A.D. 2000-Mar-06 00:00:00.0000 TDB 
  -1.800725163764694E-04  6.904277060652307E-04  3.293363593937517E-04
  -3.979850994534473E-03 -1.550995267332320E-03  1.074239824795091E-03
2451614.500000000 = A.D. 2000-Mar-11 00:00:00.0000 TDB 
  -2.521834153287868E-05 -7.407907341506389E-04 -2.631147593336972E-04
   4.100199323584158E-03  4.079982221380225E-04 -1.546564192190771E-03
2451619.500000000 = A.D. 2000-Mar-16 00:00:00.0000 TDB 
   2.280364413141658E-04  7.318606132204442E-04  1.760558573844068E-04
  -3.901913419079044E-03  7.608393485657040E-04  1.895756044352737E-03
2451624.500000000 = A.D. 2000-Mar-21 00:00:00.0000 TDB 
  -4.137549896077519E-04 -6.649956258187531E-04 -7.412689490912592E-05
   3.388592949609685E-03 -1.871142931415260E-03 -2.093268348446110E-03
2451629.500000000 = A.D. 2000-Mar-26 00:00:00.0000 TDB 
   5.649153216031282E-04  5.449906806781712E-04 -3.249510791843484E-05
  -2.612454624338242E-03  2.837091945046193E-03  2.129073406782653E-03
2451634.500000000 = A.D. 2000-Mar-31 00:00:00.0000 TDB 
  -6.735534067042750E-04 -3.837112439483747E-04  1.369398303575327E-04
   1.626220376197407E-03 -3.571025715687011E-03 -1.991489994154582E-03
2451639.500000000 = A.D. 2000-Apr-05 00:00:00.0000 TDB 
   7.272677221457605E-04  1.890181371396124E-04 -2.313965583683393E-04
  -5.116247575073043E-04  4.030515473868426E-03  1.699963705673106E-03
2451644.500000000 = A.D. 2000-Apr-10 00:00:00.0000 TDB 
  -7.239617754491264E-04  1.734949644221558E-05  3.058962294935064E-04
  -6.402303468499835E-04 -4.165139820881833E-03 -1.273204477019981E-03
2451649.500000000 = A.D. 2000-Apr-15 00:00:00.0000 TDB 
   6.635052849739712E-04 -2.249175358829262E-04 -3.575682054282275E-04
   1.747847639515547E-03  3.972269494522657E-03  7.431661976744959E-04
2451654.500000000 = A.D. 2000-Apr-20 00:00:00.0000 TDB 
  -5.508252881905792E-04  4.130422585376637E-04  3.806597542499300E-04
  -2.709157069672263E-03 -3.466551947650424E-03 -1.588379159234732E-04
2451659.500000000 = A.D. 2000-Apr-25 00:00:00.0000 TDB 
   3.928975762640813E-04 -5.697808798041232E-04 -3.727989372495536E-04
   3.462881757289311E-03  2.682226478757720E-03 -4.425419919577999E-04
2451664.500000000 = A.D. 2000-Apr-30 00:00:00.0000 TDB 
  -2.068807720337849E-04  6.796812588110774E-04  3.365626855681293E-04
  -3.939819942058998E-03 -1.691528242150930E-03  1.006099997937155E-03
2451669.500000000 = A.D. 2000-May-05 00:00:00.0000 TDB 
   1.193568311801369E-06 -7.382544287729729E-04 -2.732326925344189E-04
   4.102152414732893E-03  5.606842265367815E-04 -1.490449699701062E-03
2451674.500000000 = A.D. 2000-May-10 00:00:00.0000 TDB 
   2.023145099848621E-04  7.357123812432347E-04  1.877015312371686E-04
  -3.947256918760295E-03  6.093913158419590E-04  1.858319517612667E-03
2451679.500000000 = A.D. 2000-May-15 00:00:00.0000 TDB 
  -3.904685190017177E-04 -6.770296922561405E-04 -8.844207143417690E-05
   3.471042501447680E-03 -1.733673700346098E-03 -2.076646738568706E-03
2451684.500000000 = A.D. 2000-May-20 00:00:00.0000 TDB 
   5.481436483636827E-04  5.637245913760092E-04 -1.858717180082831E-05
  -2.727095134045832E-03  2.722257016586096E-03  2.133356639036106E-03
2451689.500000000 = A.D. 2000-May-25 00:00:00.0000 TDB 
  -6.621572732425470E-04 -4.062394348560551E-04  1.242400327867343E-04
   1.764654558818951E-03 -3.489789158462612E-03 -2.018538423430733E-03
2451694.500000000 = A.D. 2000-May-30 00:00:00.0000 TDB 
   7.229547966685795E-04  2.157149325243764E-04 -2.193924235149210E-04
  -6.605939752193235E-04  3.989455158235229E-03  1.746333953757908E-03
2451699.500000000 = A.D. 2000-Jun-04 00:00:00.0000 TDB 
  -7.284763167689836E-04 -1.034578866490940E-05  2.975630499050687E-04
  -4.904580399718023E-04 -4.165352698438115E-03 -1.334554560298641E-03
2451704.500000000 = A.D. 2000-Jun-09 00:00:00.0000 TDB 
   6.741173935344869E-04 -1.993846411246955E-04 -3.527453381493236E-04
   1.609225408648974E-03  4.016044817478094E-03  8.167098401367759E-04
2451709.500000000 = A.D. 2000-Jun-14 00:00:00.0000 TDB 
  -5.680007887626358E-04  3.894413845285128E-04  3.786133398679238E-04
  -2.594751894699982E-03 -3.549991529286017E-03 -2.369538271176322E-04
2451714.500000000 = A.D. 2000-Jun-19 00:00:00.0000 TDB 
   4.162150232114796E-04 -5.517328403089367E-04 -3.759007850953784E-04
   3.379036529237682E-03  2.796920136459239E-03 -3.659355020229613E-04
2451719.500000000 = A.D. 2000-Jun-24 00:00:00.0000 TDB 
  -2.319797992905547E-04  6.687133602885101E-04  3.429966616439250E-04
  -3.894245136618709E-03 -1.830970715235553E-03  9.353611368634802E-04
2451724.500000000 = A.D. 2000-Jun-29 00:00:00.0000 TDB 
   2.821612156985715E-05 -7.334368771789978E-04 -2.821976951320840E-04
   4.099979663974058E-03  7.124660480269566E-04 -1.433368021240619E-03
2451729.500000000 = A.D. 2000-Jul-04 00:00:00.0000 TDB 
   1.756109654392952E-04  7.393995618268919E-04  2.003424694725455E-04
  -3.985783499529344E-03  4.580567371762690E-04  1.818468867723969E-03
2451734.500000000 = A.D. 2000-Jul-09 00:00:00.0000 TDB 
  -3.680856411680394E-04 -6.884543472397032E-04 -1.019284194950910E-04
   3.549085578720230E-03 -1.592498173446603E-03 -2.056128525528269E-03
2451739.500000000 = A.D. 2000-Jul-14 00:00:00.0000 TDB 
   5.296262461907962E-04  5.804934770040317E-04 -5.089191542246076E-06
  -2.839039796389301E-03  2.604385365011220E-03  2.135934713326677E-03
2451744.500000000 = A.D. 2000-Jul-19 00:00:00.0000 TDB 
  -6.496157907336545E-04 -4.293392944601369E-04  1.101758125625322E-04
   1.899272754061154E-03 -3.404493189402771E-03 -2.042579266165544E-03
2451749.500000000 = A.D. 2000-Jul-24 00:00:00.0000 TDB 
   7.189544827631594E-04  2.420101451760396E-04 -2.080962532544879E-04
  -8.094106586769434E-04  3.941533940313473E-03  1.789476238655485E-03
